{"type": "FeatureCollection", "features": [ {"type": "Feature", "properties": {"norad_id": 34031, "name": "COSMOS 2251 DEB", "group": "cosmos-2251-debris", "lat": -43.80208404932158, "lon": -41.152154099190206, "alt_km": 684.7316129803694, "timestamp": "2025-12-19T10:50:01.595184+00:00", "meta": {"OBJECT_NAME": "COSMOS 2251 DEB", "OBJECT_ID": "1993-036HS", "EPOCH": "2025-12-18T19:41:22.092576", "MEAN_MOTION": 14.59754189, "ECCENTRICITY": 0.00229534, "INCLINATION": 74.0128, "RA_OF_ASC_NODE": 124.0937, "ARG_OF_PERICENTER": 244.1115, "MEAN_ANOMALY": 267.2458, "EPHEMERIS_TYPE": 0, "CLASSIFICATION_TYPE": "U", "NORAD_CAT_ID": 34031, "ELEMENT_SET_NO": 999, "REV_AT_EPOCH": 88654, "BSTAR": 0.00096906347, "MEAN_MOTION_DOT": 4.615e-05, "MEAN_MOTION_DDOT": 0}, "tle": {"line1": "1 34031U 93036HS  25352.82039459  .00004615  00000+0  96906-3 0  9997", "line2": "2 34031  74.0128 124.0937 0022953 244.1115 267.2458 14.59754189886548"}}, "geometry": {"type": "Point", "coordinates": [-41.152154099190206, -43.80208404932158]}}, {"type": "Feature", "properties": {"norad_id": 34035, "name": "COSMOS 2251 DEB", "group": "cosmos-2251-debris", "lat": -21.04312060453941, "lon": 162.82838432429645, "alt_km": 746.4064111537591, "timestamp": "2025-12-19T10:50:01.595193+00:00", "meta": {"OBJECT_NAME": "COSMOS 2251 DEB", "OBJECT_ID": "1993-036HW", "EPOCH": "2025-12-18T05:52:51.906144", "MEAN_MOTION": 14.52010653, "ECCENTRICITY": 0.0045054, "INCLINATION": 74.0652, "RA_OF_ASC_NODE": 338.7856, "ARG_OF_PERICENTER": 339.1544, "MEAN_ANOMALY": 39.6359, "EPHEMERIS_TYPE": 0, "CLASSIFICATION_TYPE": "U", "NORAD_CAT_ID": 34035, "ELEMENT_SET_NO": 999, "REV_AT_EPOCH": 88046, "BSTAR": 0.0014074339, "MEAN_MOTION_DOT": 5.739e-05, "MEAN_MOTION_DDOT": 0}, "tle": {"line1": "1 34035U 93036HW  25352.24504521  .00005739  00000+0  14074-2 0  9997", "line2": "2 34035  74.0652 338.7856 0045054 339.1544  39.6359 14.52010653880466"}}, "geometry": {"type": "Point", "coordinates": [162.82838432429645, -21.04312060453941]}}, {"type": "Feature", "properties": {"norad_id": 34036, "name": "COSMOS 2251 DEB", "group": "cosmos-2251-debris", "lat": 61.54708699039448, "lon": 167.64168347544273, "alt_km": 575.9634221370379, "timestamp": "2025-12-19T10:50:01.595203+00:00", "meta": {"OBJECT_NAME": "COSMOS 2251 DEB", "OBJECT_ID": "1993-036HX", "EPOCH": "2025-12-18T13:39:59.580576", "MEAN_MOTION": 14.95421329, "ECCENTRICITY": 0.00110737, "INCLINATION": 74.0196, "RA_OF_ASC_NODE": 137.4958, "ARG_OF_PERICENTER": 168.8965, "MEAN_ANOMALY": 191.2466, "EPHEMERIS_TYPE": 0, "CLASSIFICATION_TYPE": "U", "NORAD_CAT_ID": 34036, "ELEMENT_SET_NO": 999, "REV_AT_EPOCH": 88657, "BSTAR": 0.0031797854, "MEAN_MOTION_DOT": 0.00035336, "MEAN_MOTION_DDOT": 0}, "tle": {"line1": "1 34036U 93036HX  25352.56943959  .00035336  00000+0  31798-2 0  9993", "line2": "2 34036  74.0196 137.4958 0011073 168.8965 191.2466 14.95421329886570"}}, "geometry": {"type": "Point", "coordinates": [167.64168347544273, 61.54708699039448]}}, {"type": "Feature", "properties": {"norad_id": 34037, "name": "COSMOS 2251 DEB", "group": "cosmos-2251-debris", "lat": 68.90264144830886, "lon": 170.32654811217512, "alt_km": 733.7519793413494, "timestamp": "2025-12-19T10:50:01.595214+00:00", "meta": {"OBJECT_NAME": "COSMOS 2251 DEB", "OBJECT_ID": "1993-036HY", "EPOCH": "2025-12-18T14:16:20.695008", "MEAN_MOTION": 14.34679641, "ECCENTRICITY": 0.00518383, "INCLINATION": 74.0513, "RA_OF_ASC_NODE": 39.7266, "ARG_OF_PERICENTER": 87.9128, "MEAN_ANOMALY": 272.7959, "EPHEMERIS_TYPE": 0, "CLASSIFICATION_TYPE": "U", "NORAD_CAT_ID": 34037, "ELEMENT_SET_NO": 999, "REV_AT_EPOCH": 87801, "BSTAR": 0.00033094134, "MEAN_MOTION_DOT": 9.25e-06, "MEAN_MOTION_DDOT": 0}, "tle": {"line1": "1 34037U 93036HY  25352.59468397  .00000925  00000+0  33094-3 0  9993", "line2": "2 34037  74.0513  39.7266 0051838  87.9128 272.7959 14.34679641878012"}}, "geometry": {"type": "Point", "coordinates": [170.32654811217512, 68.90264144830886]}}, {"type": "Feature", "properties": {"norad_id": 34040, "name": "COSMOS 2251 DEB", "group": "cosmos-2251-debris", "lat": -12.540959866236028, "lon": -121.55655194908054, "alt_km": 1261.271597727824, "timestamp": "2025-12-19T10:50:01.595224+00:00", "meta": {"OBJECT_NAME": "COSMOS 2251 DEB", "OBJECT_ID": "1993-036JB", "EPOCH": "2025-12-18T14:35:39.891840", "MEAN_MOTION": 13.68382997, "ECCENTRICITY": 0.03432162, "INCLINATION": 73.9558, "RA_OF_ASC_NODE": 56.1664, "ARG_OF_PERICENTER": 8.341, "MEAN_ANOMALY": 352.321, "EPHEMERIS_TYPE": 0, "CLASSIFICATION_TYPE": "U", "NORAD_CAT_ID": 34040, "ELEMENT_SET_NO": 999, "REV_AT_EPOCH": 83680, "BSTAR": 0.00048606868, "MEAN_MOTION_DOT": 6.04e-06, "MEAN_MOTION_DDOT": 0}, "tle": {"line1": "1 34040U 93036JB  25352.60810060  .00000604  00000+0  48607-3 0  9997", "line2": "2 34040  73.9558  56.1664 0343216   8.3410 352.3210 13.68382997836800"}}, "geometry": {"type": "Point", "coordinates": [-121.55655194908054, -12.540959866236028]}}, {"type": "Feature", "properties": {"norad_id": 34045, "name": "COSMOS 2251 DEB", "group": "cosmos-2251-debris", "lat": 43.59213863240304, "lon": 102.74067259493258, "alt_km": 781.6224299977039, "timestamp": "2025-12-19T10:50:01.595234+00:00", "meta": {"OBJECT_NAME": "COSMOS 2251 DEB", "OBJECT_ID": "1993-036JG", "EPOCH": "2025-12-18T22:46:49.245312", "MEAN_MOTION": 14.34072231, "ECCENTRICITY": 0.00259207, "INCLINATION": 74.0394, "RA_OF_ASC_NODE": 299.4697, "ARG_OF_PERICENTER": 21.2239, "MEAN_ANOMALY": 40.8234, "EPHEMERIS_TYPE": 0, "CLASSIFICATION_TYPE": "U", "NORAD_CAT_ID": 34045, "ELEMENT_SET_NO": 999, "REV_AT_EPOCH": 88122, "BSTAR": 7.2251472e-05, "MEAN_MOTION_DOT": 1.77e-06, "MEAN_MOTION_DDOT": 0}, "tle": {"line1": "1 34045U 93036JG  25352.94918108  .00000177  00000+0  72251-4 0  9999", "line2": "2 34045  74.0394 299.4697 0025920  21.2239  40.8234 14.34072231881227"}}, "geometry": {"type": "Point", "coordinates": [102.74067259493258, 43.59213863240304]}}, {"type": "Feature", "properties": {"norad_id": 34046, "name": "COSMOS 2251 DEB", "group": "cosmos-2251-debris", "lat": 58.459479890934894, "lon": 25.73554932258399, "alt_km": 680.3288986137941, "timestamp": "2025-12-19T10:50:01.595244+00:00", "meta": {"OBJECT_NAME": "COSMOS 2251 DEB", "OBJECT_ID": "1993-036JH", "EPOCH": "2025-12-18T01:38:36.652128", "MEAN_MOTION": 14.46515039, "ECCENTRICITY": 0.00744287, "INCLINATION": 74.0391, "RA_OF_ASC_NODE": 0.5232, "ARG_OF_PERICENTER": 82.3438, "MEAN_ANOMALY": 341.7575, "EPHEMERIS_TYPE": 0, "CLASSIFICATION_TYPE": "U", "NORAD_CAT_ID": 34046, "ELEMENT_SET_NO": 999, "REV_AT_EPOCH": 87903, "BSTAR": 0.00091063799, "MEAN_MOTION_DOT": 3.368e-05, "MEAN_MOTION_DDOT": 0}, "tle": {"line1": "1 34046U 93036JH  25352.06847977  .00003368  00000+0  91064-3 0  9995", "line2": "2 34046  74.0391   0.5232 0074428  82.3438 341.7575 14.46515039879035"}}, "geometry": {"type": "Point", "coordinates": [25.73554932258399, 58.459479890934894]}}, {"type": "Feature", "properties": {"norad_id": 34050, "name": "COSMOS 2251 DEB", "group": "cosmos-2251-debris", "lat": 12.767864295763355, "lon": 174.83347622992608, "alt_km": 946.3346017579206, "timestamp": "2025-12-19T10:50:01.595255+00:00", "meta": {"OBJECT_NAME": "COSMOS 2251 DEB", "OBJECT_ID": "1993-036JM", "EPOCH": "2025-12-18T17:24:58.136832", "MEAN_MOTION": 13.96193763, "ECCENTRICITY": 0.021463, "INCLINATION": 74.0883, "RA_OF_ASC_NODE": 359.7841, "ARG_OF_PERICENTER": 62.5594, "MEAN_ANOMALY": 55.3269, "EPHEMERIS_TYPE": 0, "CLASSIFICATION_TYPE": "U", "NORAD_CAT_ID": 34050, "ELEMENT_SET_NO": 999, "REV_AT_EPOCH": 85515, "BSTAR": 0.0005354004, "MEAN_MOTION_DOT": 8.71e-06, "MEAN_MOTION_DDOT": 0}, "tle": {"line1": "1 34050U 93036JM  25352.72567288  .00000871  00000+0  53540-3 0  9990", "line2": "2 34050  74.0883 359.7841 0214630  62.5594  55.3269 13.96193763855150"}}, "geometry": {"type": "Point", "coordinates": [174.83347622992608, 12.767864295763355]}}, {"type": "Feature", "properties": {"norad_id": 34053, "name": "COSMOS 2251 DEB", "group": "cosmos-2251-debris", "lat": 73.45628359901654, "lon": -51.256895141482886, "alt_km": 936.8797623800165, "timestamp": "2025-12-19T10:50:01.595265+00:00", "meta": {"OBJECT_NAME": "COSMOS 2251 DEB", "OBJECT_ID": "1993-036JQ", "EPOCH": "2025-12-18T18:25:16.067712", "MEAN_MOTION": 13.49170558, "ECCENTRICITY": 0.04225705, "INCLINATION": 73.8436, "RA_OF_ASC_NODE": 232.4581, "ARG_OF_PERICENTER": 20.0164, "MEAN_ANOMALY": 341.6966, "EPHEMERIS_TYPE": 0, "CLASSIFICATION_TYPE": "U", "NORAD_CAT_ID": 34053, "ELEMENT_SET_NO": 999, "REV_AT_EPOCH": 82765, "BSTAR": 0.00056527452, "MEAN_MOTION_DOT": 5.95e-06, "MEAN_MOTION_DDOT": 0}, "tle": {"line1": "1 34053U 93036JQ  25352.76754708  .00000595  00000+0  56527-3 0  9993", "line2": "2 34053  73.8436 232.4581 0422570  20.0164 341.6966 13.49170558827652"}}, "geometry": {"type": "Point", "coordinates": [-51.256895141482886, 73.45628359901654]}}, {"type": "Feature", "properties": {"norad_id": 34056, "name": "COSMOS 2251 DEB", "group": "cosmos-2251-debris", "lat": 0.07213255995921823, "lon": -115.64362019037411, "alt_km": 793.582945985766, "timestamp": "2025-12-19T10:50:01.595275+00:00", "meta": {"OBJECT_NAME": "COSMOS 2251 DEB", "OBJECT_ID": "1993-036JT", "EPOCH": "2025-12-18T15:59:27.207168", "MEAN_MOTION": 14.2057747, "ECCENTRICITY": 0.01237714, "INCLINATION": 74.0597, "RA_OF_ASC_NODE": 65.7803, "ARG_OF_PERICENTER": 112.0513, "MEAN_ANOMALY": 12.8618, "EPHEMERIS_TYPE": 0, "CLASSIFICATION_TYPE": "U", "NORAD_CAT_ID": 34056, "ELEMENT_SET_NO": 999, "REV_AT_EPOCH": 86495, "BSTAR": 0.0004746606, "MEAN_MOTION_DOT": 1.079e-05, "MEAN_MOTION_DDOT": 0}, "tle": {"line1": "1 34056U 93036JT  25352.66628712  .00001079  00000+0  47466-3 0  9990", "line2": "2 34056  74.0597  65.7803 0123771 112.0513  12.8618 14.20577470864950"}}, "geometry": {"type": "Point", "coordinates": [-115.64362019037411, 0.07213255995921823]}}]}